{"type": "FeatureCollection", "features": [ {"type": "Feature", "properties": {"norad_id": 17070, "name": "POLAR BEAR", "group": "nnss", "lat": -41.592345896420696, "lon": -177.08227943431544, "alt_km": 1004.1607026525726, "timestamp": "2025-12-25T14:48:25.045592+00:00", "meta": {"OBJECT_NAME": "POLAR BEAR", "OBJECT_ID": "1986-088A", "EPOCH": "2025-12-25T00:02:02.554080", "MEAN_MOTION": 13.75253296, "ECCENTRICITY": 0.00412867, "INCLINATION": 89.617, "RA_OF_ASC_NODE": 183.2827, "ARG_OF_PERICENTER": 83.9988, "MEAN_ANOMALY": 69.2776, "EPHEMERIS_TYPE": 0, "CLASSIFICATION_TYPE": "U", "NORAD_CAT_ID": 17070, "ELEMENT_SET_NO": 999, "REV_AT_EPOCH": 96147, "BSTAR": 0.00010005436, "MEAN_MOTION_DOT": 1.08e-06, "MEAN_MOTION_DDOT": 0}, "tle": {"line1": "1 17070U 86088A   25359.00141845  .00000108  00000+0  10005-3 0  9999", "line2": "2 17070  89.6170 183.2827 0041286  83.9988  69.2776 13.75253296961472"}}, "geometry": {"type": "Point", "coordinates": [-177.08227943431544, -41.592345896420696]}}, {"type": "Feature", "properties": {"norad_id": 18361, "name": "OSCAR 27", "group": "nnss", "lat": -72.72721328139346, "lon": -101.44861042220741, "alt_km": 1066.1191025551288, "timestamp": "2025-12-25T14:48:25.045602+00:00", "meta": {"OBJECT_NAME": "OSCAR 27", "OBJECT_ID": "1987-080A", "EPOCH": "2025-12-25T02:50:43.252224", "MEAN_MOTION": 13.44909221, "ECCENTRICITY": 0.01039567, "INCLINATION": 90.3736, "RA_OF_ASC_NODE": 79.7351, "ARG_OF_PERICENTER": 188.1847, "MEAN_ANOMALY": 171.7609, "EPHEMERIS_TYPE": 0, "CLASSIFICATION_TYPE": "U", "NORAD_CAT_ID": 18361, "ELEMENT_SET_NO": 999, "REV_AT_EPOCH": 87723, "BSTAR": 0.00017449099, "MEAN_MOTION_DOT": 1.14e-06, "MEAN_MOTION_DDOT": 0}, "tle": {"line1": "1 18361U 87080A   25359.11855616  .00000114  00000+0  17449-3 0  9992", "line2": "2 18361  90.3736  79.7351 0103956 188.1847 171.7609 13.44909221877235"}}, "geometry": {"type": "Point", "coordinates": [-101.44861042220741, -72.72721328139346]}}, {"type": "Feature", "properties": {"norad_id": 18362, "name": "OSCAR 29", "group": "nnss", "lat": -63.291199150656645, "lon": -100.5318786700002, "alt_km": 1034.3752877732577, "timestamp": "2025-12-25T14:48:25.045611+00:00", "meta": {"OBJECT_NAME": "OSCAR 29", "OBJECT_ID": "1987-080B", "EPOCH": "2025-12-25T00:10:49.420416", "MEAN_MOTION": 13.44450714, "ECCENTRICITY": 0.01047541, "INCLINATION": 90.3749, "RA_OF_ASC_NODE": 80.1909, "ARG_OF_PERICENTER": 211.66, "MEAN_ANOMALY": 322.9629, "EPHEMERIS_TYPE": 0, "CLASSIFICATION_TYPE": "U", "NORAD_CAT_ID": 18362, "ELEMENT_SET_NO": 999, "REV_AT_EPOCH": 87674, "BSTAR": 0.0001662997, "MEAN_MOTION_DOT": 1.08e-06, "MEAN_MOTION_DDOT": 0}, "tle": {"line1": "1 18362U 87080B   25359.00751644  .00000108  00000+0  16630-3 0  9991", "line2": "2 18362  90.3749  80.1909 0104754 211.6600 322.9629 13.44450714876746"}}, "geometry": {"type": "Point", "coordinates": [-100.5318786700002, -63.291199150656645]}}, {"type": "Feature", "properties": {"norad_id": 19070, "name": "OSCAR 23", "group": "nnss", "lat": -33.59370419258287, "lon": 17.004145902773512, "alt_km": 1304.692367140241, "timestamp": "2025-12-25T14:48:25.045621+00:00", "meta": {"OBJECT_NAME": "OSCAR 23", "OBJECT_ID": "1988-033A", "EPOCH": "2025-12-25T02:38:09.075264", "MEAN_MOTION": 13.27789056, "ECCENTRICITY": 0.01904894, "INCLINATION": 90.3203, "RA_OF_ASC_NODE": 16.7755, "ARG_OF_PERICENTER": 145.6115, "MEAN_ANOMALY": 278.2947, "EPHEMERIS_TYPE": 0, "CLASSIFICATION_TYPE": "U", "NORAD_CAT_ID": 19070, "ELEMENT_SET_NO": 999, "REV_AT_EPOCH": 82417, "BSTAR": 0.00010293328, "MEAN_MOTION_DOT": 6.1e-07, "MEAN_MOTION_DDOT": 0}, "tle": {"line1": "1 19070U 88033A   25359.10982726  .00000061  00000+0  10293-3 0  9992", "line2": "2 19070  90.3203  16.7755 0190489 145.6115 278.2947 13.27789056824170"}}, "geometry": {"type": "Point", "coordinates": [17.004145902773512, -33.59370419258287]}}, {"type": "Feature", "properties": {"norad_id": 19071, "name": "OSCAR 32", "group": "nnss", "lat": 83.01077258518276, "lon": 14.304674227657074, "alt_km": 1050.4114084282337, "timestamp": "2025-12-25T14:48:25.045631+00:00", "meta": {"OBJECT_NAME": "OSCAR 32", "OBJECT_ID": "1988-033B", "EPOCH": "2025-12-25T01:46:19.026912", "MEAN_MOTION": 13.27955759, "ECCENTRICITY": 0.01892356, "INCLINATION": 90.3208, "RA_OF_ASC_NODE": 16.907, "ARG_OF_PERICENTER": 132.6407, "MEAN_ANOMALY": 237.0138, "EPHEMERIS_TYPE": 0, "CLASSIFICATION_TYPE": "U", "NORAD_CAT_ID": 19071, "ELEMENT_SET_NO": 999, "REV_AT_EPOCH": 82429, "BSTAR": 9.9554128e-05, "MEAN_MOTION_DOT": 5.9e-07, "MEAN_MOTION_DDOT": 0}, "tle": {"line1": "1 19071U 88033B   25359.07383133  .00000059  00000+0  99554-4 0  9991", "line2": "2 19071  90.3208  16.9070 0189235 132.6407 237.0138 13.27955759824298"}}, "geometry": {"type": "Point", "coordinates": [14.304674227657074, 83.01077258518276]}}, {"type": "Feature", "properties": {"norad_id": 19223, "name": "NOVA 2", "group": "nnss", "lat": 49.796156398211515, "lon": 78.27242189628362, "alt_km": 1160.8584408267943, "timestamp": "2025-12-25T14:48:25.045640+00:00", "meta": {"OBJECT_NAME": "NOVA 2", "OBJECT_ID": "1988-052A", "EPOCH": "2025-12-25T05:45:03.256992", "MEAN_MOTION": 13.22937288, "ECCENTRICITY": 0.00295267, "INCLINATION": 89.9863, "RA_OF_ASC_NODE": 78.2567, "ARG_OF_PERICENTER": 342.2232, "MEAN_ANOMALY": 71.2778, "EPHEMERIS_TYPE": 0, "CLASSIFICATION_TYPE": "U", "NORAD_CAT_ID": 19223, "ELEMENT_SET_NO": 999, "REV_AT_EPOCH": 81113, "BSTAR": 0.00013822549, "MEAN_MOTION_DOT": 6.7e-07, "MEAN_MOTION_DDOT": 0}, "tle": {"line1": "1 19223U 88052A   25359.23962103  .00000067  00000+0  13823-3 0  9992", "line2": "2 19223  89.9863  78.2567 0029526 342.2232  71.2778 13.22937288811130"}}, "geometry": {"type": "Point", "coordinates": [78.27242189628362, 49.796156398211515]}}, {"type": "Feature", "properties": {"norad_id": 19419, "name": "OSCAR 25", "group": "nnss", "lat": -41.87447015443405, "lon": 20.315959569001205, "alt_km": 1129.4034734559264, "timestamp": "2025-12-25T14:48:25.045650+00:00", "meta": {"OBJECT_NAME": "OSCAR 25", "OBJECT_ID": "1988-074A", "EPOCH": "2025-12-25T01:01:12.412128", "MEAN_MOTION": 13.42625537, "ECCENTRICITY": 0.00952001, "INCLINATION": 90.0336, "RA_OF_ASC_NODE": 20.2839, "ARG_OF_PERICENTER": 210.2725, "MEAN_ANOMALY": 211.9682, "EPHEMERIS_TYPE": 0, "CLASSIFICATION_TYPE": "U", "NORAD_CAT_ID": 19419, "ELEMENT_SET_NO": 999, "REV_AT_EPOCH": 82805, "BSTAR": 0.00012533496, "MEAN_MOTION_DOT": 8.2e-07, "MEAN_MOTION_DDOT": 0}, "tle": {"line1": "1 19419U 88074A   25359.04250477  .00000082  00000+0  12533-3 0  9990", "line2": "2 19419  90.0336  20.2839 0095200 210.2725 211.9682 13.42625537828056"}}, "geometry": {"type": "Point", "coordinates": [20.315959569001205, -41.87447015443405]}}, {"type": "Feature", "properties": {"norad_id": 19420, "name": "OSCAR 31", "group": "nnss", "lat": -19.202958007717566, "lon": -159.37437326856212, "alt_km": 1034.8857650738464, "timestamp": "2025-12-25T14:48:25.045660+00:00", "meta": {"OBJECT_NAME": "OSCAR 31", "OBJECT_ID": "1988-074B", "EPOCH": "2025-12-25T01:25:51.942144", "MEAN_MOTION": 13.42586559, "ECCENTRICITY": 0.00935959, "INCLINATION": 90.0354, "RA_OF_ASC_NODE": 20.636, "ARG_OF_PERICENTER": 204.3708, "MEAN_ANOMALY": 182.6411, "EPHEMERIS_TYPE": 0, "CLASSIFICATION_TYPE": "U", "NORAD_CAT_ID": 19420, "ELEMENT_SET_NO": 999, "REV_AT_EPOCH": 82816, "BSTAR": 0.00010568619, "MEAN_MOTION_DOT": 7e-07, "MEAN_MOTION_DDOT": 0}, "tle": {"line1": "1 19420U 88074B   25359.05962896  .00000070  00000+0  10569-3 0  9992", "line2": "2 19420  90.0354  20.6360 0093595 204.3708 182.6411 13.42586559828167"}}, "geometry": {"type": "Point", "coordinates": [-159.37437326856212, -19.202958007717566]}}]}